{
    "links": {
        "self": "http://www.neowsapp.com/rest/v1/neo/3789544?api_key=iIulBulltgU6a56xZRHN4H3l9WmuAYTsLGpBGhQ2"
    },
    "id": "3789544",
    "neo_reference_id": "3789544",
    "name": "(2017 WL2)",
    "designation": "2017 WL2",
    "nasa_jpl_url": "http://ssd.jpl.nasa.gov/sbdb.cgi?sstr=3789544",
    "absolute_magnitude_h": 24.0,
    "estimated_diameter": {
        "kilometers": {
            "estimated_diameter_min": 0.0421264611,
            "estimated_diameter_max": 0.0941976306
        },
        "meters": {
            "estimated_diameter_min": 42.1264610556,
            "estimated_diameter_max": 94.1976305719
        },
        "miles": {
            "estimated_diameter_min": 0.0261761612,
            "estimated_diameter_max": 0.0585316759
        },
        "feet": {
            "estimated_diameter_min": 138.2101784897,
            "estimated_diameter_max": 309.0473542854
        }
    },
    "is_potentially_hazardous_asteroid": false,
    "close_approach_data": [
        {
            "close_approach_date": "2017-11-13",
            "close_approach_date_full": "2017-Nov-13 07:27",
            "epoch_date_close_approach": 1510558020000,
            "relative_velocity": {
                "kilometers_per_second": "6.3494103276",
                "kilometers_per_hour": "22857.8771793072",
                "miles_per_hour": "14202.9959617756"
            },
            "miss_distance": {
                "astronomical": "0.1308792009",
                "lunar": "50.9120091501",
                "kilometers": "19579249.681942083",
                "miles": "12165981.6082954254"
            },
            "orbiting_body": "Earth"
        }
    ],
    "orbital_data": {
        "orbit_id": "6",
        "orbit_determination_date": "2017-12-20 06:22:26",
        "first_observation_date": "2017-11-19",
        "last_observation_date": "2017-12-19",
        "data_arc_in_days": 30,
        "observations_used": 41,
        "orbit_uncertainty": "7",
        "minimum_orbit_intersection": ".113157",
        "jupiter_tisserand_invariant": "3.258",
        "epoch_osculation": "2459000.5",
        "eccentricity": ".5537952669793157",
        "semi_major_axis": "2.461834286353007",
        "inclination": "1.971069854378514",
        "ascending_node_longitude": "128.7413033626177",
        "orbital_period": "1410.868868614603",
        "perihelion_distance": "1.09848211048331",
        "perihelion_argument": "274.1574557870267",
        "aphelion_distance": "3.825186462222703",
        "perihelion_time": "2459476.642926424119",
        "mean_anomaly": "238.5064598661109",
        "mean_motion": ".2551619133488293",
        "equinox": "J2000",
        "orbit_class": {
            "orbit_class_type": "AMO",
            "orbit_class_description": "Near-Earth asteroid orbits similar to that of 1221 Amor",
            "orbit_class_range": "1.017 AU < q (perihelion) < 1.3 AU"
        }
    },
    "is_sentry_object": false
}